NORAD_CAT_ID,OBJECT_NAME,OBJECT_TYPE,EPOCH,MEAN_MOTION,ECCENTRICITY,INCLINATION,RA_OF_ASC_NODE,ARG_OF_PERICENTER,MEAN_ANOMALY,BSTAR,MEAN_MOTION_DOT,MEAN_MOTION_DDOT,TLE_LINE0,TLE_LINE1,TLE_LINE2,SEMIMAJOR_AXIS,PERIOD,APOGEE,PERIGEE,DECAYED
53973.0,STARLINK-5156,PAYLOAD,2023-10-03 08:13:42,15.08827634,0.0001376,53.2157,251.9421,92.5083,267.6067,-7.088e-05,-1.415e-05,0.0,0 STARLINK-5156,1 53973U 22125K   23276.34285630 -.00001415  00000-0 -70880-4 0  9990,2 53973  53.2157 251.9421 0001376  92.5083 267.6067 15.08827634 55211,6917.918,95.438,540.735,538.831,0.0
53973.0,STARLINK-5156,PAYLOAD,2023-10-04 08:04:29,15.08846274,0.0001182,53.2165,247.4825,80.284,279.8286,9.0887e-05,1.159e-05,0.0,0 STARLINK-5156,1 53973U 22125K   23277.33644867  .00001159  00000-0  90887-4 0  9993,2 53973  53.2165 247.4825 0001182  80.2840 279.8286 15.08846274 55431,6917.861,95.437,540.544,538.909,0.0
53973.0,STARLINK-5156,PAYLOAD,2023-10-04 22:22:57,15.08836028,0.0001101,53.2192,244.8048,99.9001,260.2116,-7.0285e-05,-1.406e-05,0.0,0 STARLINK-5156,1 53973U 22125K   23277.93261310 -.00001406  00000-0 -70285-4 0  9994,2 53973  53.2192 244.8048 0001101  99.9001 260.2116 15.08836028 55450,6917.893,95.438,540.519,538.996,0.0
53973.0,STARLINK-5156,PAYLOAD,2023-10-05 07:55:16,15.08846097,0.0001377,53.216,243.021,78.7571,281.3576,0.00016995,2.418e-05,0.0,0 STARLINK-5156,1 53973U 22125K   23278.33004976  .00002418  00000-0  16995-3 0  9991,2 53973  53.2160 243.0210 0001377  78.7571 281.3576 15.08846097 55584,6917.862,95.437,540.679,538.774,0.0
53973.0,STARLINK-5156,PAYLOAD,2023-10-05 14:16:49,15.08831483,0.0001824,53.217,241.8316,85.1235,274.9966,9.1911e-05,1.175e-05,0.0,0 STARLINK-5156,1 53973U 22125K   23278.59501940  .00001175  00000-0  91911-4 0  9993,2 53973  53.2170 241.8316 0001824  85.1235 274.9966 15.08831483 55623,6917.906,95.438,541.033,538.51,0.0
53973.0,STARLINK-5156,PAYLOAD,2023-10-06 04:35:17,15.088449,0.0001608,53.2168,239.1538,94.8458,265.2717,0.00024814,3.664e-05,0.0,0 STARLINK-5156,1 53973U 22125K   23279.19117214  .00003664  00000-0  24814-3 0  9999,2 53973  53.2168 239.1538 0001608  94.8458 265.2717 15.08844900 55715,6917.865,95.437,540.843,538.618,0.0
53973.0,STARLINK-5156,PAYLOAD,2023-10-06 07:46:03,15.08851322,0.0001538,53.2173,238.5597,92.1112,268.0057,0.00037356,5.664e-05,0.0,0 STARLINK-5156,1 53973U 22125K   23279.32365007  .00005664  00000-0  37356-3 0  9996,2 53973  53.2173 238.5597 0001538  92.1112 268.0057 15.08851322 55667,6917.846,95.437,540.775,538.647,0.0
53973.0,STARLINK-5156,PAYLOAD,2023-10-06 14:07:36,15.08842903,0.0002148,53.216,237.3709,79.2451,280.8783,0.0001998,2.893e-05,0.0,0 STARLINK-5156,1 53973U 22125K   23279.58861611  .00002893  00000-0  19980-3 0  9990,2 53973  53.2160 237.3709 0002148  79.2451 280.8783 15.08842903 55770,6917.872,95.437,541.222,538.251,0.0
53973.0,STARLINK-5156,PAYLOAD,2023-10-07 01:15:18,15.08834423,0.0002008,53.2175,235.2911,88.5866,271.5356,-7.4377e-05,-1.472e-05,0.0,0 STARLINK-5156,1 53973U 22125K   23280.05229846 -.00001472  00000-0 -74377-4 0  9998,2 53973  53.2175 235.2911 0002008  88.5866 271.5356 15.08834423 55845,6917.897,95.438,541.152,538.373,0.0
53973.0,STARLINK-5156,PAYLOAD,2023-10-07 06:01:27,15.0883814,0.0001636,53.2169,234.3973,81.4286,278.6892,3.092e-05,2.04e-06,0.0,0 STARLINK-5156,1 53973U 22125K   23280.25101779  .00000204  00000-0  30920-4 0  9990,2 53973  53.2169 234.3973 0001636  81.4286 278.6892 15.08838140 55809,6917.886,95.438,540.883,538.619,0.0
53973.0,STARLINK-5156,PAYLOAD,2023-10-07 13:58:23,15.08836753,0.0001302,53.216,232.9107,97.7332,262.3808,8.7313e-05,1.102e-05,0.0,0 STARLINK-5156,1 53973U 22125K   23280.58221771  .00001102  00000-0  87313-4 0  9997,2 53973  53.2160 232.9107 0001302  97.7332 262.3808 15.08836753 55855,6917.89,95.438,540.656,538.855,0.0
53973.0,STARLINK-5156,PAYLOAD,2023-10-08 02:41:28,15.08847175,0.0001392,53.216,230.531,105.4886,254.626,0.0001462,2.04e-05,0.0,0 STARLINK-5156,1 53973U 22125K   23281.11213509  .00002040  00000-0  14620-3 0  9999,2 53973  53.2160 230.5310 0001392 105.4886 254.6260 15.08847175 56009,6917.858,95.437,540.686,538.76,0.0
53973.0,STARLINK-5156,PAYLOAD,2023-10-08 13:49:10,15.08849928,0.0001471,53.2156,228.4507,89.7406,270.3755,0.00058206,8.99e-05,0.0,0 STARLINK-5156,1 53973U 22125K   23281.57581744  .00008990  00000-0  58206-3 0  9996,2 53973  53.2156 228.4507 0001471  89.7406 270.3755 15.08849928 56000,6917.85,95.437,540.733,538.697,0.0
53973.0,STARLINK-5156,PAYLOAD,2023-10-08 20:10:43,15.08850252,0.0001724,53.2156,227.2643,86.8058,273.3131,0.00041897,6.388e-05,0.0,0 STARLINK-5156,1 53973U 22125K   23281.84077708  .00006388  00000-0  41897-3 0  9993,2 53973  53.2156 227.2643 0001724  86.8058 273.3131 15.08850252 56047,6917.849,95.437,540.907,538.521,0.0
53973.0,STARLINK-5156,PAYLOAD,2023-10-09 05:43:01,15.08862182,0.0001378,53.2143,225.4783,93.5117,266.6033,0.0008099,0.00012633,0.0,0 STARLINK-5156,1 53973U 22125K   23282.23821163  .00012633  00000-0  80990-3 0  9996,2 53973  53.2143 225.4783 0001378  93.5117 266.6033 15.08862182 56179,6917.813,95.436,540.631,538.724,0.0
53973.0,STARLINK-5156,PAYLOAD,2023-10-09 13:39:57,15.08834368,0.0002336,53.2154,223.99,83.9998,276.126,8.4945e-05,1.064e-05,0.0,0 STARLINK-5156,1 53973U 22125K   23282.56942064  .00001064  00000-0  84945-4 0  9997,2 53973  53.2154 223.9900 0002336  83.9998 276.1260 15.08834368 56151,6917.898,95.438,541.379,538.147,0.0
53973.0,STARLINK-5156,PAYLOAD,2023-10-09 20:01:30,15.08842318,0.0002271,53.2162,222.7998,83.7872,276.3379,0.00049425,7.587e-05,0.0,0 STARLINK-5156,1 53973U 22125K   23282.83438050  .00007587  00000-0  49425-3 0  9991,2 53973  53.2162 222.7998 0002271  83.7872 276.3379 15.08842318 56192,6917.873,95.437,541.309,538.167,0.0
53973.0,STARLINK-5156,PAYLOAD,2023-10-10 05:33:49,15.08852381,0.0001673,53.2158,221.0162,84.1364,275.9819,0.0010235,0.00016044,0.0,0 STARLINK-5156,1 53973U 22125K   23283.23181854  .00016044  00000-0  10235-2 0  9997,2 53973  53.2158 221.0162 0001673  84.1364 275.9819 15.08852381 56328,6917.843,95.437,540.865,538.55,0.0
53973.0,STARLINK-5156,PAYLOAD,2023-10-10 13:30:45,15.08841139,0.0001182,53.2163,219.5301,89.3386,270.7742,0.00088053,0.00013754,0.0,0 STARLINK-5156,1 53973U 22125K   23283.56302149  .00013754  00000-0  88053-3 0  9994,2 53973  53.2163 219.5301 0001182  89.3386 270.7742 15.08841139 56302,6917.877,95.437,540.56,538.924,0.0
53973.0,STARLINK-5156,PAYLOAD,2023-10-10 19:52:18,15.08838972,0.0002174,53.2166,218.3416,87.9363,272.1878,0.001013,0.0001587,0.0,0 STARLINK-5156,1 53973U 22125K   23283.82798706  .00015870  00000-0  10130-2 0  9992,2 53973  53.2166 218.3416 0002174  87.9363 272.1878 15.08838972 56341,6917.884,95.438,541.252,538.245,0.0
53973.0,STARLINK-5156,PAYLOAD,2023-10-11 02:13:50,15.08845412,0.0001689,53.2171,217.1511,98.9781,261.1403,0.00077021,0.00011993,0.0,0 STARLINK-5156,1 53973U 22125K   23284.09294503  .00011993  00000-0  77021-3 0  9993,2 53973  53.2171 217.1511 0001689  98.9781 261.1403 15.08845412 56457,6917.864,95.437,540.897,538.56,0.0
53973.0,STARLINK-5156,PAYLOAD,2023-10-11 05:24:36,15.08849616,0.000174,53.2165,216.555,109.3236,250.7945,0.00094427,0.00014776,0.0,0 STARLINK-5156,1 53973U 22125K   23284.22542382  .00014776  00000-0  94427-3 0  9990,2 53973  53.2165 216.5550 0001740 109.3236 250.7945 15.08849616 56406,6917.851,95.437,540.92,538.512,0.0
53973.0,STARLINK-5156,PAYLOAD,2023-10-11 19:43:05,15.08845261,0.0001392,53.2167,213.8797,107.2988,252.8157,0.00085457,0.00013341,0.0,0 STARLINK-5156,1 53973U 22125K   23284.82158913  .00013341  00000-0  85457-3 0  9999,2 53973  53.2167 213.8797 0001392 107.2988 252.8157 15.08845261 56562,6917.864,95.437,540.692,538.766,0.0
53973.0,STARLINK-5156,PAYLOAD,2023-10-12 05:15:23,15.08861501,0.0001126,53.2171,212.0959,100.0007,260.1112,0.0014512,0.00022897,0.0,0 STARLINK-5156,1 53973U 22125K   23285.21902637  .00022897  00000-0  14512-2 0  9992,2 53973  53.2171 212.0959 0001126 100.0007 260.1112 15.08861501 56553,6917.815,95.436,540.459,538.901,0.0
53973.0,STARLINK-5156,PAYLOAD,2023-10-12 22:44:38,15.08848251,0.0001308,53.2172,208.8246,114.0699,246.043,0.00073392,0.00011414,0.0,0 STARLINK-5156,1 53973U 22125K   23285.94766668  .00011414  00000-0  73392-3 0  9999,2 53973  53.2172 208.8246 0001308 114.0699 246.0430 15.08848251 56665,6917.855,95.437,540.625,538.815,0.0
53973.0,STARLINK-5156,PAYLOAD,2023-10-13 01:55:24,15.08859235,0.0001125,53.2175,208.2299,85.5157,274.5963,0.0012297,0.00019347,0.0,0 STARLINK-5156,1 53973U 22125K   23286.08014640  .00019347  00000-0  12297-2 0  9990,2 53973  53.2175 208.2299 0001125  85.5157 274.5963 15.08859235 56759,6917.822,95.436,540.465,538.908,0.0
53973.0,STARLINK-5156,PAYLOAD,2023-10-13 11:27:43,15.08856275,0.0001024,53.2177,206.4466,89.0476,271.0633,0.00081141,0.00012655,0.0,0 STARLINK-5156,1 53973U 22125K   23286.47758270  .00012655  00000-0  81141-3 0  9997,2 53973  53.2177 206.4466 0001024  89.0476 271.0633 15.08856275 56812,6917.831,95.437,540.404,538.987,0.0
53973.0,STARLINK-5156,PAYLOAD,2023-10-14 00:10:48,15.08853765,0.0001148,53.2174,204.0673,67.8145,292.2969,0.0010999,0.00017267,0.0,0 STARLINK-5156,1 53973U 22125K   23287.00750311  .00017267  00000-0  10999-2 0  9991,2 53973  53.2174 204.0673 0001148  67.8145 292.2969 15.08853765 56893,6917.838,95.437,540.497,538.909,0.0
53973.0,STARLINK-5156,PAYLOAD,2023-10-14 11:18:29,15.08867673,0.0001231,53.2179,201.9854,75.6007,284.5122,0.0010298,0.00016152,0.0,0 STARLINK-5156,1 53973U 22125K   23287.47117624  .00016152  00000-0  10298-2 0  9990,2 53973  53.2179 201.9854 0001231  75.6007 284.5122 15.08867673 56890,6917.796,95.436,540.512,538.809,0.0
53973.0,STARLINK-5156,PAYLOAD,2023-10-14 22:26:11,15.08847902,0.0001607,53.217,199.9059,87.3111,272.8065,0.00088752,0.00013868,0.0,0 STARLINK-5156,1 53973U 22125K   23287.93485805  .00013868  00000-0  88752-3 0  9992,2 53973  53.2170 199.9059 0001607  87.3111 272.8065 15.08847902 56964,6917.856,95.437,540.833,538.61,0.0
